{
  "norad_id": 68333,
  "name": "STARLINK-37180",
  "history": [
    {
      "epoch": "2026-03-31T16:00:01.999584Z",
      "apogee_km": 328.83965760577394,
      "perigee_km": 327.7706507264011,
      "latitude_deg": -52.153249568763194,
      "longitude_deg": 77.09559928832823,
      "height_km": 346.70397153168506,
      "semi_major_axis_km": 6706.442154166088,
      "eccentricity": 7.97e-05,
      "inclination_deg": 53.1596,
      "raan_deg": 252.6461,
      "arg_perigee_deg": 27.5459,
      "mean_anomaly_deg": 232.3653,
      "mean_motion_rev_day": 15.80754721
    }
  ]
}